STARLINK-11127 [DTC]    
1 60119U 24118G   26068.68962396 -.00000351  00000+0  19588-5 0  9999
2 60119  53.1595 221.2371 0001018  90.5221 269.5914 15.69714646 97993
TROOP-F2                
1 60557U 24149CT  26068.81453008  .00139132  00000+0  10931-2 0  9998
2 60557  97.3621 159.7382 0003464 230.7595 129.3361 15.71081872 87567
